<?xml version="1.0" encoding="UTF-8"?>
<osm generator="VMB">
  <MetaInfo format_version="1" map_version="2" validation_version=""/>
  <node id="8" lat="48.74497952756" lon="7.63973860774">
    <tag k="local_x" v="1.3034"/>
    <tag k="local_y" v="-0.5328"/>
    <tag k="ele" v="-0.0444"/>
  </node>
  <node id="9" lat="48.74498286442" lon="7.63973313084">
    <tag k="local_x" v="0.9074"/>
    <tag k="local_y" v="-0.1547"/>
    <tag k="ele" v="-0.0415"/>
  </node>
  <node id="11" lat="48.74498492787" lon="7.63972609402">
    <tag k="local_x" v="0.3942"/>
    <tag k="local_y" v="0.0839"/>
    <tag k="ele" v="-0.0453"/>
  </node>
  <node id="12" lat="48.74498297887" lon="7.63971775486">
    <tag k="local_x" v="-0.2227"/>
    <tag k="local_y" v="-0.1218"/>
    <tag k="ele" v="-0.0472"/>
  </node>
  <node id="13" lat="48.74498032322" lon="7.63971341777">
    <tag k="local_x" v="-0.5468"/>
    <tag k="local_y" v="-0.4113"/>
    <tag k="ele" v="-0.047"/>
  </node>
  <node id="14" lat="48.74497640413" lon="7.63970798301">
    <tag k="local_x" v="-0.9541"/>
    <tag k="local_y" v="-0.8398"/>
    <tag k="ele" v="-0.0474"/>
  </node>
  <node id="15" lat="48.74497307368" lon="7.63970455378">
    <tag k="local_x" v="-1.2128"/>
    <tag k="local_y" v="-1.2055"/>
    <tag k="ele" v="-0.0454"/>
  </node>
  <node id="16" lat="48.74496993482" lon="7.63970508469">
    <tag k="local_x" v="-1.18"/>
    <tag k="local_y" v="-1.5551"/>
    <tag k="ele" v="-0.0469"/>
  </node>
  <node id="17" lat="48.74496675666" lon="7.63970922013">
    <tag k="local_x" v="-0.8823"/>
    <tag k="local_y" v="-1.9138"/>
    <tag k="ele" v="-0.044"/>
  </node>
  <node id="18" lat="48.74496322341" lon="7.63971863636">
    <tag k="local_x" v="-0.1971"/>
    <tag k="local_y" v="-2.3189"/>
    <tag k="ele" v="-0.0374"/>
  </node>
  <node id="19" lat="48.74496154631" lon="7.6397244888">
    <tag k="local_x" v="0.2298"/>
    <tag k="local_y" v="-2.513"/>
    <tag k="ele" v="-0.0349"/>
  </node>
  <node id="20" lat="48.74496183889" lon="7.63973281145">
    <tag k="local_x" v="0.8422"/>
    <tag k="local_y" v="-2.4914"/>
    <tag k="ele" v="-0.0484"/>
  </node>
  <node id="21" lat="48.74496330667" lon="7.63973887147">
    <tag k="local_x" v="1.2906"/>
    <tag k="local_y" v="-2.3362"/>
    <tag k="ele" v="-0.045"/>
  </node>
  <node id="22" lat="48.74496562102" lon="7.6397443237">
    <tag k="local_x" v="1.696"/>
    <tag k="local_y" v="-2.0861"/>
    <tag k="ele" v="-0.0428"/>
  </node>
  <node id="23" lat="48.74496863596" lon="7.63974777505">
    <tag k="local_x" v="1.9557"/>
    <tag k="local_y" v="-1.7555"/>
    <tag k="ele" v="-0.0421"/>
  </node>
  <node id="28" lat="48.7449822386" lon="7.63974359765">
    <tag k="local_x" v="1.6756"/>
    <tag k="local_y" v="-0.238"/>
    <tag k="ele" v="-0.044"/>
  </node>
  <node id="29" lat="48.74498512477" lon="7.63973865663">
    <tag k="local_x" v="1.3181"/>
    <tag k="local_y" v="0.0893"/>
    <tag k="ele" v="-0.0428"/>
  </node>
  <node id="31" lat="48.74498711009" lon="7.63973483225">
    <tag k="local_x" v="1.0409"/>
    <tag k="local_y" v="0.315"/>
    <tag k="ele" v="-0.0404"/>
  </node>
  <node id="32" lat="48.74498834207" lon="7.63973105406">
    <tag k="local_x" v="0.7656"/>
    <tag k="local_y" v="0.4569"/>
    <tag k="ele" v="-0.041"/>
  </node>
  <node id="33" lat="48.74498870443" lon="7.63972783802">
    <tag k="local_x" v="0.5299"/>
    <tag k="local_y" v="0.5014"/>
    <tag k="ele" v="-0.0425"/>
  </node>
  <node id="34" lat="48.74498852895" lon="7.63972318505">
    <tag k="local_x" v="0.1875"/>
    <tag k="local_y" v="0.488"/>
    <tag k="ele" v="-0.0412"/>
  </node>
  <node id="35" lat="48.74498778121" lon="7.63971745791">
    <tag k="local_x" v="-0.235"/>
    <tag k="local_y" v="0.4124"/>
    <tag k="ele" v="-0.0408"/>
  </node>
  <node id="36" lat="48.74498653436" lon="7.63971349905">
    <tag k="local_x" v="-0.5285"/>
    <tag k="local_y" v="0.279"/>
    <tag k="ele" v="-0.0433"/>
  </node>
  <node id="37" lat="48.74498399273" lon="7.63970830325">
    <tag k="local_x" v="-0.9155"/>
    <tag k="local_y" v="0.0033"/>
    <tag k="ele" v="-0.0454"/>
  </node>
  <node id="38" lat="48.74498212267" lon="7.63970581266">
    <tag k="local_x" v="-1.1023"/>
    <tag k="local_y" v="-0.2013"/>
    <tag k="ele" v="-0.0457"/>
  </node>
  <node id="39" lat="48.74497987918" lon="7.63970270506">
    <tag k="local_x" v="-1.3352"/>
    <tag k="local_y" v="-0.4466"/>
    <tag k="ele" v="-0.0453"/>
  </node>
  <node id="40" lat="48.74497777065" lon="7.63969982778">
    <tag k="local_x" v="-1.5509"/>
    <tag k="local_y" v="-0.6772"/>
    <tag k="ele" v="-0.0438"/>
  </node>
  <node id="41" lat="48.74497503217" lon="7.63969815234">
    <tag k="local_x" v="-1.6795"/>
    <tag k="local_y" v="-0.9794"/>
    <tag k="ele" v="-0.0439"/>
  </node>
  <node id="42" lat="48.74497106469" lon="7.63969776292">
    <tag k="local_x" v="-1.716"/>
    <tag k="local_y" v="-1.4199"/>
    <tag k="ele" v="-0.0377"/>
  </node>
  <node id="44" lat="48.74496747979" lon="7.63969907037">
    <tag k="local_x" v="-1.627"/>
    <tag k="local_y" v="-1.8201"/>
    <tag k="ele" v="-0.0296"/>
  </node>
  <node id="45" lat="48.74496365807" lon="7.63970371289">
    <tag k="local_x" v="-1.2933"/>
    <tag k="local_y" v="-2.251"/>
    <tag k="ele" v="-0.0366"/>
  </node>
  <node id="46" lat="48.74496124566" lon="7.63970946275">
    <tag k="local_x" v="-0.8754"/>
    <tag k="local_y" v="-2.5267"/>
    <tag k="ele" v="-0.0402"/>
  </node>
  <node id="47" lat="48.74495935955" lon="7.6397154419">
    <tag k="local_x" v="-0.4396"/>
    <tag k="local_y" v="-2.7442"/>
    <tag k="ele" v="-0.0402"/>
  </node>
  <node id="48" lat="48.74495751774" lon="7.63972281145">
    <tag k="local_x" v="0.0985"/>
    <tag k="local_y" v="-2.9586"/>
    <tag k="ele" v="-0.0404"/>
  </node>
  <node id="50" lat="48.74495724624" lon="7.6397301427">
    <tag k="local_x" v="0.6369"/>
    <tag k="local_y" v="-2.9984"/>
    <tag k="ele" v="-0.0462"/>
  </node>
  <node id="51" lat="48.74495780656" lon="7.63973683527">
    <tag k="local_x" v="1.13"/>
    <tag k="local_y" v="-2.9449"/>
    <tag k="ele" v="-0.0479"/>
  </node>
  <node id="52" lat="48.74495980072" lon="7.63974313274">
    <tag k="local_x" v="1.5969"/>
    <tag k="local_y" v="-2.7315"/>
    <tag k="ele" v="-0.0459"/>
  </node>
  <node id="53" lat="48.74496137346" lon="7.63974726236">
    <tag k="local_x" v="1.9036"/>
    <tag k="local_y" v="-2.5621"/>
    <tag k="ele" v="-0.0453"/>
  </node>
  <node id="54" lat="48.74496453544" lon="7.63975105254">
    <tag k="local_x" v="2.1885"/>
    <tag k="local_y" v="-2.2156"/>
    <tag k="ele" v="-0.0435"/>
  </node>
  <node id="55" lat="48.74496788858" lon="7.63975373707">
    <tag k="local_x" v="2.3925"/>
    <tag k="local_y" v="-1.8464"/>
    <tag k="ele" v="-0.0408"/>
  </node>
  <node id="66" lat="48.7449731001" lon="7.63970458164">
    <tag k="local_x" v="-1.2107"/>
    <tag k="local_y" v="-1.2026"/>
    <tag k="ele" v="-0.0464"/>
  </node>
  <node id="69" lat="48.74496321822" lon="7.63971865418">
    <tag k="local_x" v="-0.1958"/>
    <tag k="local_y" v="-2.3195"/>
    <tag k="ele" v="-0.0361"/>
  </node>
  <node id="97" lat="48.74497213006" lon="7.63975462649">
    <tag k="local_x" v="2.4663"/>
    <tag k="local_y" v="-1.3761"/>
    <tag k="ele" v="-0.0416"/>
  </node>
  <node id="98" lat="48.74497621093" lon="7.63975219837">
    <tag k="local_x" v="2.2959"/>
    <tag k="local_y" v="-0.9193"/>
    <tag k="ele" v="-0.0424"/>
  </node>
  <node id="99" lat="48.74497941026" lon="7.63974825552">
    <tag k="local_x" v="2.0124"/>
    <tag k="local_y" v="-0.5585"/>
    <tag k="ele" v="-0.0432"/>
  </node>
  <node id="100" lat="48.7449715423" lon="7.63974819992">
    <tag k="local_x" v="1.9927"/>
    <tag k="local_y" v="-1.433"/>
    <tag k="ele" v="-0.0427"/>
  </node>
  <node id="101" lat="48.74497400573" lon="7.63974578144">
    <tag k="local_x" v="1.8198"/>
    <tag k="local_y" v="-1.156"/>
    <tag k="ele" v="-0.0432"/>
  </node>
  <node id="102" lat="48.7449768944" lon="7.63974196669">
    <tag k="local_x" v="1.5451"/>
    <tag k="local_y" v="-0.8299"/>
    <tag k="ele" v="-0.0438"/>
  </node>
  <node id="103" lat="48.74498022353" lon="7.63971327899">
    <tag k="local_x" v="-0.5572"/>
    <tag k="local_y" v="-0.4222"/>
    <tag k="ele" v="-0.0472"/>
  </node>
  <node id="104" lat="48.7449835083" lon="7.63970765793">
    <tag k="local_x" v="-0.9639"/>
    <tag k="local_y" v="-0.0497"/>
    <tag k="ele" v="-0.0455"/>
  </node>
  <node id="110" lat="48.74498418412" lon="7.63972862931">
    <tag k="local_x" v="0.5791"/>
    <tag k="local_y" v="-0.0021"/>
    <tag k="ele" v="-0.0434"/>
  </node>
  <node id="111" lat="48.74498842759" lon="7.63973029678">
    <tag k="local_x" v="0.7101"/>
    <tag k="local_y" v="0.4674"/>
    <tag k="ele" v="-0.0417"/>
  </node>
  <node id="117" lat="48.74496341679" lon="7.63973913104">
    <tag k="local_x" v="1.3099"/>
    <tag k="local_y" v="-2.3243"/>
    <tag k="ele" v="-0.0439"/>
  </node>
  <node id="118" lat="48.7449594372" lon="7.63974198357">
    <tag k="local_x" v="1.5117"/>
    <tag k="local_y" v="-2.7704"/>
    <tag k="ele" v="-0.0469"/>
  </node>
  <way id="43">
    <nd ref="41"/>
    <nd ref="42"/>
    <nd ref="44"/>
    <nd ref="45"/>
    <nd ref="46"/>
    <nd ref="47"/>
    <tag k="type" v="line_thin"/>
    <tag k="subtype" v="solid"/>
  </way>
  <way id="67">
    <nd ref="66"/>
    <nd ref="15"/>
    <nd ref="16"/>
    <nd ref="17"/>
    <nd ref="18"/>
    <nd ref="69"/>
    <tag k="type" v="line_thin"/>
    <tag k="subtype" v="solid"/>
  </way>
  <way id="94">
    <nd ref="23"/>
    <nd ref="100"/>
    <nd ref="101"/>
    <nd ref="102"/>
    <nd ref="8"/>
    <tag k="type" v="line_thin"/>
    <tag k="subtype" v="solid"/>
  </way>
  <way id="95">
    <nd ref="55"/>
    <nd ref="97"/>
    <nd ref="98"/>
    <nd ref="99"/>
    <nd ref="28"/>
    <tag k="type" v="line_thin"/>
    <tag k="subtype" v="solid"/>
  </way>
  <way id="106">
    <nd ref="103"/>
    <nd ref="14"/>
    <nd ref="66"/>
    <tag k="type" v="line_thin"/>
    <tag k="subtype" v="solid"/>
  </way>
  <way id="108">
    <nd ref="104"/>
    <nd ref="38"/>
    <nd ref="39"/>
    <nd ref="40"/>
    <nd ref="41"/>
    <tag k="type" v="line_thin"/>
    <tag k="subtype" v="solid"/>
  </way>
  <way id="112">
    <nd ref="8"/>
    <nd ref="9"/>
    <nd ref="110"/>
    <tag k="type" v="line_thin"/>
    <tag k="subtype" v="solid"/>
  </way>
  <way id="113">
    <nd ref="110"/>
    <nd ref="11"/>
    <nd ref="12"/>
    <nd ref="13"/>
    <nd ref="103"/>
    <tag k="type" v="line_thin"/>
    <tag k="subtype" v="solid"/>
  </way>
  <way id="114">
    <nd ref="28"/>
    <nd ref="29"/>
    <nd ref="31"/>
    <nd ref="32"/>
    <nd ref="111"/>
    <tag k="type" v="line_thin"/>
    <tag k="subtype" v="solid"/>
  </way>
  <way id="115">
    <nd ref="111"/>
    <nd ref="33"/>
    <nd ref="34"/>
    <nd ref="35"/>
    <nd ref="36"/>
    <nd ref="37"/>
    <nd ref="104"/>
    <tag k="type" v="line_thin"/>
    <tag k="subtype" v="solid"/>
  </way>
  <way id="119">
    <nd ref="69"/>
    <nd ref="19"/>
    <nd ref="20"/>
    <nd ref="21"/>
    <nd ref="117"/>
    <tag k="type" v="line_thin"/>
    <tag k="subtype" v="solid"/>
  </way>
  <way id="120">
    <nd ref="117"/>
    <nd ref="22"/>
    <nd ref="23"/>
    <tag k="type" v="line_thin"/>
    <tag k="subtype" v="solid"/>
  </way>
  <way id="121">
    <nd ref="47"/>
    <nd ref="48"/>
    <nd ref="50"/>
    <nd ref="51"/>
    <nd ref="118"/>
    <tag k="type" v="line_thin"/>
    <tag k="subtype" v="solid"/>
  </way>
  <way id="122">
    <nd ref="118"/>
    <nd ref="52"/>
    <nd ref="53"/>
    <nd ref="54"/>
    <nd ref="55"/>
    <tag k="type" v="line_thin"/>
    <tag k="subtype" v="solid"/>
  </way>
  <relation id="68">
    <member type="way" role="left" ref="112"/>
    <member type="way" role="right" ref="114"/>
    <tag k="type" v="lanelet"/>
    <tag k="subtype" v="road"/>
    <tag k="speed_limit" v="10"/>
    <tag k="location" v="urban"/>
    <tag k="one_way" v="no"/>
  </relation>
  <relation id="71">
    <member type="way" role="left" ref="67"/>
    <member type="way" role="right" ref="43"/>
    <tag k="type" v="lanelet"/>
    <tag k="subtype" v="road"/>
    <tag k="speed_limit" v="10"/>
    <tag k="location" v="urban"/>
    <tag k="one_way" v="no"/>
  </relation>
  <relation id="79">
    <member type="way" role="left" ref="119"/>
    <member type="way" role="right" ref="121"/>
    <tag k="type" v="lanelet"/>
    <tag k="subtype" v="road"/>
    <tag k="speed_limit" v="10"/>
    <tag k="location" v="urban"/>
    <tag k="one_way" v="no"/>
  </relation>
  <relation id="96">
    <member type="way" role="left" ref="94"/>
    <member type="way" role="right" ref="95"/>
    <tag k="type" v="lanelet"/>
    <tag k="subtype" v="road"/>
    <tag k="speed_limit" v="10"/>
    <tag k="location" v="urban"/>
    <tag k="one_way" v="yes"/>
    <tag k="turn_direction" v="straight"/>
  </relation>
  <relation id="109">
    <member type="way" role="left" ref="106"/>
    <member type="way" role="right" ref="108"/>
    <tag k="type" v="lanelet"/>
    <tag k="subtype" v="road"/>
    <tag k="speed_limit" v="10"/>
    <tag k="location" v="urban"/>
    <tag k="one_way" v="no"/>
  </relation>
  <relation id="116">
    <member type="way" role="left" ref="113"/>
    <member type="way" role="right" ref="115"/>
    <tag k="type" v="lanelet"/>
    <tag k="subtype" v="road"/>
    <tag k="speed_limit" v="10"/>
    <tag k="location" v="urban"/>
    <tag k="one_way" v="no"/>
  </relation>
  <relation id="123">
    <member type="way" role="left" ref="120"/>
    <member type="way" role="right" ref="122"/>
    <tag k="type" v="lanelet"/>
    <tag k="subtype" v="road"/>
    <tag k="speed_limit" v="10"/>
    <tag k="location" v="urban"/>
    <tag k="one_way" v="no"/>
  </relation>
</osm>
