<?xml version="1.0" encoding="UTF-8"?>
<osm generator="VMB">
  <MetaInfo format_version="1" map_version="2" validation_version=""/>
  <node id="22" lat="48.74498387618" lon="7.63972967418">
    <tag k="local_x" v="0.6553"/>
    <tag k="local_y" v="-0.0377"/>
    <tag k="ele" v="0.0478"/>
  </node>
  <node id="23" lat="48.74502032724" lon="7.63972987509">
    <tag k="local_x" v="0.7424"/>
    <tag k="local_y" v="4.0138"/>
    <tag k="ele" v="0.0407"/>
  </node>
  <node id="25" lat="48.74498409474" lon="7.63971984002">
    <tag k="local_x" v="-0.0672"/>
    <tag k="local_y" v="-0.0005"/>
    <tag k="ele" v="0.0478"/>
  </node>
  <node id="26" lat="48.74502388155" lon="7.63972102281">
    <tag k="local_x" v="0.0987"/>
    <tag k="local_y" v="4.4205"/>
    <tag k="ele" v="0.0335"/>
  </node>
  <node id="29" lat="48.74498413806" lon="7.63973768207">
    <tag k="local_x" v="1.2445"/>
    <tag k="local_y" v="-0.0191"/>
    <tag k="ele" v="0.0478"/>
  </node>
  <node id="30" lat="48.74502036566" lon="7.63973876778">
    <tag k="local_x" v="1.3962"/>
    <tag k="local_y" v="4.0064"/>
    <tag k="ele" v="0.0407"/>
  </node>
  <node id="31" lat="48.74498400477" lon="7.63974788121">
    <tag k="local_x" v="1.994"/>
    <tag k="local_y" v="-0.0473"/>
    <tag k="ele" v="0.0478"/>
  </node>
  <node id="32" lat="48.74502023237" lon="7.63974896693">
    <tag k="local_x" v="2.1457"/>
    <tag k="local_y" v="3.9782"/>
    <tag k="ele" v="0.0407"/>
  </node>
  <node id="43" lat="48.74502291123" lon="7.63973362918">
    <tag k="local_x" v="1.0235"/>
    <tag k="local_y" v="4.2961"/>
    <tag k="ele" v="0.0375"/>
  </node>
  <node id="44" lat="48.74502258133" lon="7.63973746193">
    <tag k="local_x" v="1.3046"/>
    <tag k="local_y" v="4.2544"/>
    <tag k="ele" v="0.0494"/>
  </node>
  <node id="46" lat="48.74502871939" lon="7.63973158157">
    <tag k="local_x" v="0.8845"/>
    <tag k="local_y" v="4.9444"/>
    <tag k="ele" v="0.0375"/>
  </node>
  <node id="47" lat="48.74502864592" lon="7.63973922715">
    <tag k="local_x" v="1.4464"/>
    <tag k="local_y" v="4.9262"/>
    <tag k="ele" v="0.0494"/>
  </node>
  <node id="80" lat="48.74502040204" lon="7.63971967481">
    <tag k="local_x" v="-0.0073"/>
    <tag k="local_y" v="4.0355"/>
    <tag k="ele" v="0.0443"/>
  </node>
  <node id="82" lat="48.74502646681" lon="7.63972381785">
    <tag k="local_x" v="0.3093"/>
    <tag k="local_y" v="4.7042"/>
    <tag k="ele" v="0.0347"/>
  </node>
  <node id="83" lat="48.74502796829" lon="7.63972747465">
    <tag k="local_x" v="0.5811"/>
    <tag k="local_y" v="4.8663"/>
    <tag k="ele" v="0.0367"/>
  </node>
  <node id="84" lat="48.74502053136" lon="7.63973017157">
    <tag k="local_x" v="0.7646"/>
    <tag k="local_y" v="4.0361"/>
    <tag k="ele" v="0.0391"/>
  </node>
  <node id="87" lat="48.74502033416" lon="7.63973876727">
    <tag k="local_x" v="1.3961"/>
    <tag k="local_y" v="4.0029"/>
    <tag k="ele" v="0.0443"/>
  </node>
  <node id="89" lat="48.74502041981" lon="7.63974876462">
    <tag k="local_x" v="2.1312"/>
    <tag k="local_y" v="3.9993"/>
    <tag k="ele" v="0.0451"/>
  </node>
  <node id="91" lat="48.74502340922" lon="7.63974837786">
    <tag k="local_x" v="2.1087"/>
    <tag k="local_y" v="4.3321"/>
    <tag k="ele" v="0.0462"/>
  </node>
  <node id="92" lat="48.74502603749" lon="7.63974635759">
    <tag k="local_x" v="1.9654"/>
    <tag k="local_y" v="4.6269"/>
    <tag k="ele" v="0.0472"/>
  </node>
  <node id="93" lat="48.74502818865" lon="7.63974362515">
    <tag k="local_x" v="1.7688"/>
    <tag k="local_y" v="4.8696"/>
    <tag k="ele" v="0.0483"/>
  </node>
  <node id="157" lat="48.7449826698" lon="7.63973577238">
    <tag k="local_x" v="1.1012"/>
    <tag k="local_y" v="-0.1798"/>
    <tag k="ele" v="0.0325"/>
  </node>
  <node id="158" lat="48.7449825631" lon="7.63973176369">
    <tag k="local_x" v="0.8063"/>
    <tag k="local_y" v="-0.1864"/>
    <tag k="ele" v="0.0284"/>
  </node>
  <node id="160" lat="48.74497936525" lon="7.63974543409">
    <tag k="local_x" v="1.8049"/>
    <tag k="local_y" v="-0.5598"/>
    <tag k="ele" v="0.0325"/>
  </node>
  <node id="161" lat="48.74497652998" lon="7.63974005577">
    <tag k="local_x" v="1.4039"/>
    <tag k="local_y" v="-0.8679"/>
    <tag k="ele" v="0.0284"/>
  </node>
  <node id="168" lat="48.74497606379" lon="7.63972609523">
    <tag k="local_x" v="0.3767"/>
    <tag k="local_y" v="-0.9014"/>
    <tag k="ele" v="0.0318"/>
  </node>
  <node id="169" lat="48.74497942359" lon="7.63972111422">
    <tag k="local_x" v="0.0172"/>
    <tag k="local_y" v="-0.5214"/>
    <tag k="ele" v="0.0398"/>
  </node>
  <way id="24">
    <nd ref="22"/>
    <nd ref="23"/>
    <nd ref="84"/>
    <tag k="type" v="line_thin"/>
    <tag k="subtype" v="solid"/>
  </way>
  <way id="27">
    <nd ref="25"/>
    <nd ref="80"/>
    <tag k="type" v="line_thin"/>
    <tag k="subtype" v="solid"/>
  </way>
  <way id="33">
    <nd ref="157"/>
    <nd ref="29"/>
    <nd ref="87"/>
    <tag k="type" v="line_thin"/>
    <tag k="subtype" v="solid"/>
  </way>
  <way id="34">
    <nd ref="160"/>
    <nd ref="31"/>
    <nd ref="32"/>
    <nd ref="89"/>
    <tag k="type" v="line_thin"/>
    <tag k="subtype" v="solid"/>
  </way>
  <way id="45">
    <nd ref="43"/>
    <nd ref="44"/>
    <tag k="type" v="line_thin"/>
    <tag k="subtype" v="solid"/>
  </way>
  <way id="48">
    <nd ref="46"/>
    <nd ref="47"/>
    <tag k="type" v="line_thin"/>
    <tag k="subtype" v="solid"/>
  </way>
  <way id="81">
    <nd ref="80"/>
    <nd ref="26"/>
    <nd ref="82"/>
    <nd ref="83"/>
    <nd ref="46"/>
    <tag k="type" v="line_thin"/>
    <tag k="subtype" v="solid"/>
  </way>
  <way id="85">
    <nd ref="84"/>
    <nd ref="43"/>
    <tag k="type" v="line_thin"/>
    <tag k="subtype" v="solid"/>
  </way>
  <way id="88">
    <nd ref="87"/>
    <nd ref="30"/>
    <nd ref="44"/>
    <tag k="type" v="line_thin"/>
    <tag k="subtype" v="solid"/>
  </way>
  <way id="90">
    <nd ref="89"/>
    <nd ref="91"/>
    <nd ref="92"/>
    <nd ref="93"/>
    <nd ref="47"/>
    <tag k="type" v="line_thin"/>
    <tag k="subtype" v="solid"/>
  </way>
  <way id="159">
    <nd ref="157"/>
    <nd ref="158"/>
    <nd ref="22"/>
    <tag k="type" v="line_thin"/>
    <tag k="subtype" v="solid"/>
  </way>
  <way id="162">
    <nd ref="160"/>
    <nd ref="161"/>
    <nd ref="168"/>
    <nd ref="169"/>
    <nd ref="25"/>
    <tag k="type" v="line_thin"/>
    <tag k="subtype" v="solid"/>
  </way>
  <relation id="28">
    <member type="way" role="left" ref="27"/>
    <member type="way" role="right" ref="24"/>
    <tag k="type" v="lanelet"/>
    <tag k="subtype" v="road"/>
    <tag k="speed_limit" v="10"/>
    <tag k="location" v="urban"/>
    <tag k="one_way" v="yes"/>
  </relation>
  <relation id="35">
    <member type="way" role="left" ref="34"/>
    <member type="way" role="right" ref="33"/>
    <tag k="type" v="lanelet"/>
    <tag k="subtype" v="road"/>
    <tag k="speed_limit" v="10"/>
    <tag k="location" v="urban"/>
    <tag k="one_way" v="yes"/>
  </relation>
  <relation id="49">
    <member type="way" role="left" ref="48"/>
    <member type="way" role="right" ref="45"/>
    <tag k="type" v="lanelet"/>
    <tag k="subtype" v="road"/>
    <tag k="speed_limit" v="10"/>
    <tag k="location" v="urban"/>
    <tag k="one_way" v="yes"/>
  </relation>
  <relation id="86">
    <member type="way" role="left" ref="81"/>
    <member type="way" role="right" ref="85"/>
    <tag k="type" v="lanelet"/>
    <tag k="subtype" v="road"/>
    <tag k="speed_limit" v="10"/>
    <tag k="location" v="urban"/>
    <tag k="one_way" v="yes"/>
  </relation>
  <relation id="94">
    <member type="way" role="left" ref="90"/>
    <member type="way" role="right" ref="88"/>
    <tag k="type" v="lanelet"/>
    <tag k="subtype" v="road"/>
    <tag k="speed_limit" v="10"/>
    <tag k="location" v="urban"/>
    <tag k="one_way" v="yes"/>
  </relation>
  <relation id="163">
    <member type="way" role="left" ref="162"/>
    <member type="way" role="right" ref="159"/>
    <tag k="type" v="lanelet"/>
    <tag k="subtype" v="road"/>
    <tag k="speed_limit" v="10"/>
    <tag k="location" v="urban"/>
    <tag k="one_way" v="yes"/>
  </relation>
</osm>
